start=new Date('2022-12-02T00:00:00.000Z').valueOf();
sats=[{"MEAN_ELEMENT_THEORY":"SGP4","SEMIMAJOR_AXIS":"6917.920","MEAN_MOTION_DDOT":"0.0000000000000","COUNTRY_CODE":"US","ELEMENT_SET_NO":"999","RCS_SIZE":"LARGE","TLE_LINE1":"1 53965U 22125B   22335.91667824  .00012528  00000-0  80410-3 0  9992","MEAN_ANOMALY":"228.3268","MEAN_MOTION":"15.08827037","OBJECT_TYPE":"PAYLOAD","OBJECT_ID":"2022-125B","ECCENTRICITY":"0.00020750","CENTER_NAME":"EARTH","APOAPSIS":"541.220","RA_OF_ASC_NODE":"183.2930","LAUNCH_DATE":"2022-10-05","GP_ID":"219308319","BSTAR":"0.00080410000000","TIME_SYSTEM":"UTC","REF_FRAME":"TEME","MEAN_MOTION_DOT":"0.00012528","EPHEMERIS_TYPE":"0","DECAY_DATE":null,"TLE_LINE2":"2 53965  53.2161 183.2930 0002075  48.6346 228.3268 15.08827037  1305","EPOCH":"2022-12-01T22:00:00.999936","NORAD_CAT_ID":"53965","SITE":"AFWTR","PERIAPSIS":"538.350","ARG_OF_PERICENTER":"48.6346","OBJECT_NAME":"STARLINK-4578","FILE":"3678231","PERIOD":"95.438","REV_AT_EPOCH":"130","CLASSIFICATION_TYPE":"U","INCLINATION":"53.2161"},{"MEAN_ELEMENT_THEORY":"SGP4","SEMIMAJOR_AXIS":"6917.917","ELEMENT_SET_NO":"999","MEAN_MOTION_DDOT":"0.0000000000000","COUNTRY_CODE":"US","RCS_SIZE":"LARGE","TLE_LINE1":"1 53966U 22125C   22335.91667824 -.00001629  00000-0 -84317-4 0  9996","MEAN_ANOMALY":"248.6485","MEAN_MOTION":"15.08827933","OBJECT_ID":"2022-125C","OBJECT_TYPE":"PAYLOAD","ECCENTRICITY":"0.00021260","CENTER_NAME":"EARTH","LAUNCH_DATE":"2022-10-05","APOAPSIS":"541.253","RA_OF_ASC_NODE":"183.2532","GP_ID":"219308489","BSTAR":"-0.00008431700000","REF_FRAME":"TEME","TIME_SYSTEM":"UTC","MEAN_MOTION_DOT":"-0.00001629","DECAY_DATE":null,"EPHEMERIS_TYPE":"0","TLE_LINE2":"2 53966  53.2157 183.2532 0002126  48.3587 248.6485 15.08827933  1301","EPOCH":"2022-12-01T22:00:00.999936","NORAD_CAT_ID":"53966","SITE":"AFWTR","PERIAPSIS":"538.312","ARG_OF_PERICENTER":"48.3587","CLASSIFICATION_TYPE":"U","OBJECT_NAME":"STARLINK-4635","FILE":"3678231","PERIOD":"95.438","REV_AT_EPOCH":"130","INCLINATION":"53.2157"},{"SITE":"AFWTR","ARG_OF_PERICENTER":"53.6022","PERIAPSIS":"538.186","TLE_LINE2":"2 53967  53.2150 183.2111 0002319  53.6022 263.3969 15.08825268  1305","NORAD_CAT_ID":"53967","EPOCH":"2022-12-01T22:00:00.999936","INCLINATION":"53.2150","FILE":"3678231","PERIOD":"95.438","REV_AT_EPOCH":"130","OBJECT_NAME":"STARLINK-4634","CLASSIFICATION_TYPE":"U","BSTAR":"0.00074432000000","MEAN_MOTION_DOT":"0.00011573","DECAY_DATE":null,"EPHEMERIS_TYPE":"0","TIME_SYSTEM":"UTC","REF_FRAME":"TEME","OBJECT_TYPE":"PAYLOAD","OBJECT_ID":"2022-125D","MEAN_MOTION":"15.08825268","MEAN_ANOMALY":"263.3969","GP_ID":"219307260","CENTER_NAME":"EARTH","ECCENTRICITY":"0.00023190","RA_OF_ASC_NODE":"183.2111","APOAPSIS":"541.395","LAUNCH_DATE":"2022-10-05","SEMIMAJOR_AXIS":"6917.925","MEAN_ELEMENT_THEORY":"SGP4","RCS_SIZE":"LARGE","TLE_LINE1":"1 53967U 22125D   22335.91667824  .00011573  00000-0  74432-3 0  9990","COUNTRY_CODE":"US","MEAN_MOTION_DDOT":"0.0000000000000","ELEMENT_SET_NO":"999"},{"TIME_SYSTEM":"UTC","REF_FRAME":"TEME","MEAN_MOTION_DOT":"0.00009070","EPHEMERIS_TYPE":"0","DECAY_DATE":null,"BSTAR":"0.00058743000000","REV_AT_EPOCH":"130","FILE":"3678231","PERIOD":"95.438","OBJECT_NAME":"STARLINK-4629","CLASSIFICATION_TYPE":"U","INCLINATION":"53.2134","TLE_LINE2":"2 53968  53.2134 183.0917 0001639  57.1138 319.9867 15.08827634  1305","NORAD_CAT_ID":"53968","EPOCH":"2022-12-01T22:00:00.999936","SITE":"AFWTR","PERIAPSIS":"538.649","ARG_OF_PERICENTER":"57.1138","COUNTRY_CODE":"US","MEAN_MOTION_DDOT":"0.0000000000000","ELEMENT_SET_NO":"999","RCS_SIZE":"LARGE","TLE_LINE1":"1 53968U 22125E   22335.91667824  .00009070  00000-0  58743-3 0  9997","MEAN_ELEMENT_THEORY":"SGP4","SEMIMAJOR_AXIS":"6917.918","CENTER_NAME":"EARTH","ECCENTRICITY":"0.00016390","APOAPSIS":"540.917","RA_OF_ASC_NODE":"183.0917","LAUNCH_DATE":"2022-10-05","GP_ID":"219307435","MEAN_ANOMALY":"319.9867","MEAN_MOTION":"15.08827634","OBJECT_TYPE":"PAYLOAD","OBJECT_ID":"2022-125E"},{"CLASSIFICATION_TYPE":"U","REV_AT_EPOCH":"130","FILE":"3678231","PERIOD":"95.437","OBJECT_NAME":"STARLINK-4468","INCLINATION":"53.2136","NORAD_CAT_ID":"53969","EPOCH":"2022-12-01T22:00:00.999936","TLE_LINE2":"2 53969  53.2136 183.1712 0002230  52.6855 284.3525 15.08844603  1307","PERIAPSIS":"538.189","ARG_OF_PERICENTER":"52.6855","SITE":"AFWTR","REF_FRAME":"TEME","TIME_SYSTEM":"UTC","DECAY_DATE":null,"EPHEMERIS_TYPE":"0","MEAN_MOTION_DOT":"0.00008475","BSTAR":"0.00054989000000","LAUNCH_DATE":"2022-10-05","APOAPSIS":"541.274","RA_OF_ASC_NODE":"183.1712","CENTER_NAME":"EARTH","ECCENTRICITY":"0.00022300","GP_ID":"219307975","MEAN_MOTION":"15.08844603","MEAN_ANOMALY":"284.3525","OBJECT_ID":"2022-125F","OBJECT_TYPE":"PAYLOAD","ELEMENT_SET_NO":"999","MEAN_MOTION_DDOT":"0.0000000000000","COUNTRY_CODE":"US","TLE_LINE1":"1 53969U 22125F   22335.91667824  .00008475  00000-0  54989-3 0  9994","RCS_SIZE":"LARGE","MEAN_ELEMENT_THEORY":"SGP4","SEMIMAJOR_AXIS":"6917.866"},{"BSTAR":"0.00080115000000","TIME_SYSTEM":"UTC","REF_FRAME":"TEME","DECAY_DATE":null,"EPHEMERIS_TYPE":"0","MEAN_MOTION_DOT":"0.00012485","NORAD_CAT_ID":"53970","EPOCH":"2022-12-01T22:00:00.999936","TLE_LINE2":"2 53970  53.2134 178.5740 0001416  69.5140  69.5198 15.08838747  1306","PERIAPSIS":"538.770","ARG_OF_PERICENTER":"69.5140","SITE":"AFWTR","FILE":"3678231","PERIOD":"95.438","REV_AT_EPOCH":"130","OBJECT_NAME":"STARLINK-4567","CLASSIFICATION_TYPE":"U","INCLINATION":"53.2134","MEAN_ELEMENT_THEORY":"SGP4","SEMIMAJOR_AXIS":"6917.884","MEAN_MOTION_DDOT":"0.0000000000000","COUNTRY_CODE":"US","ELEMENT_SET_NO":"999","TLE_LINE1":"1 53970U 22125G   22335.91667824  .00012485  00000-0  80115-3 0  9992","RCS_SIZE":"LARGE","MEAN_ANOMALY":"69.5198","MEAN_MOTION":"15.08838747","OBJECT_TYPE":"PAYLOAD","OBJECT_ID":"2022-125G","RA_OF_ASC_NODE":"178.5740","APOAPSIS":"540.729","LAUNCH_DATE":"2022-10-05","ECCENTRICITY":"0.00014160","CENTER_NAME":"EARTH","GP_ID":"219308145"},{"OBJECT_ID":"2022-125H","OBJECT_TYPE":"PAYLOAD","MEAN_ANOMALY":"310.6022","MEAN_MOTION":"15.08822939","GP_ID":"219307624","LAUNCH_DATE":"2022-10-05","RA_OF_ASC_NODE":"183.1318","APOAPSIS":"541.270","ECCENTRICITY":"0.00021280","CENTER_NAME":"EARTH","SEMIMAJOR_AXIS":"6917.933","MEAN_ELEMENT_THEORY":"SGP4","TLE_LINE1":"1 53971U 22125H   22335.91667824  .00010470  00000-0  67528-3 0  9998","RCS_SIZE":"LARGE","ELEMENT_SET_NO":"999","COUNTRY_CODE":"US","MEAN_MOTION_DDOT":"0.0000000000000","ARG_OF_PERICENTER":"46.4594","PERIAPSIS":"538.325","SITE":"AFWTR","NORAD_CAT_ID":"53971","EPOCH":"2022-12-01T22:00:00.999936","TLE_LINE2":"2 53971  53.2133 183.1318 0002128  46.4594 310.6022 15.08822939  1309","INCLINATION":"53.2133","CLASSIFICATION_TYPE":"U","PERIOD":"95.439","FILE":"3678231","OBJECT_NAME":"STARLINK-4639","REV_AT_EPOCH":"130","BSTAR":"0.00067528000000","DECAY_DATE":null,"EPHEMERIS_TYPE":"0","MEAN_MOTION_DOT":"0.00010470","REF_FRAME":"TEME","TIME_SYSTEM":"UTC"},{"SEMIMAJOR_AXIS":"6917.926","MEAN_ELEMENT_THEORY":"SGP4","RCS_SIZE":"LARGE","TLE_LINE1":"1 53972U 22125J   22335.91667824  .00014597  00000-0  93367-3 0  9993","MEAN_MOTION_DDOT":"0.0000000000000","COUNTRY_CODE":"US","ELEMENT_SET_NO":"999","OBJECT_TYPE":"PAYLOAD","OBJECT_ID":"2022-125J","MEAN_ANOMALY":"179.5906","MEAN_MOTION":"15.08825073","GP_ID":"219307800","CENTER_NAME":"EARTH","ECCENTRICITY":"0.00011680","APOAPSIS":"540.599","RA_OF_ASC_NODE":"178.3377","LAUNCH_DATE":"2022-10-05","BSTAR":"0.00093367000000","MEAN_MOTION_DOT":"0.00014597","DECAY_DATE":null,"EPHEMERIS_TYPE":"0","TIME_SYSTEM":"UTC","REF_FRAME":"TEME","SITE":"AFWTR","ARG_OF_PERICENTER":"79.5849","PERIAPSIS":"538.983","TLE_LINE2":"2 53972  53.2148 178.3377 0001168  79.5849 179.5906 15.08825073  1305","NORAD_CAT_ID":"53972","EPOCH":"2022-12-01T22:00:00.999936","INCLINATION":"53.2148","FILE":"3678231","OBJECT_NAME":"STARLINK-5157","PERIOD":"95.438","REV_AT_EPOCH":"130","CLASSIFICATION_TYPE":"U"},{"OBJECT_ID":"2022-125K","OBJECT_TYPE":"PAYLOAD","MEAN_MOTION":"15.08819617","MEAN_ANOMALY":"70.3329","GP_ID":"219281010","LAUNCH_DATE":"2022-10-05","RA_OF_ASC_NODE":"182.6778","APOAPSIS":"541.132","ECCENTRICITY":"0.00019150","CENTER_NAME":"EARTH","SEMIMAJOR_AXIS":"6917.943","MEAN_ELEMENT_THEORY":"SGP4","TLE_LINE1":"1 53973U 22125K   22336.00001157  .00046176  00000-0  29021-2 0  9999","RCS_SIZE":"MEDIUM","ELEMENT_SET_NO":"999","COUNTRY_CODE":"US","MEAN_MOTION_DDOT":"0.0000000000000","PERIAPSIS":"538.483","ARG_OF_PERICENTER":"59.6626","SITE":"AFWTR","NORAD_CAT_ID":"53973","EPOCH":"2022-12-02T00:00:00.999648","TLE_LINE2":"2 53973  53.2139 182.6778 0001915  59.6626  70.3329 15.08819617  9189","INCLINATION":"53.2139","CLASSIFICATION_TYPE":"U","FILE":"3678015","PERIOD":"95.439","REV_AT_EPOCH":"918","OBJECT_NAME":"STARLINK-5156","BSTAR":"0.00290210000000","EPHEMERIS_TYPE":"0","DECAY_DATE":null,"MEAN_MOTION_DOT":"0.00046176","REF_FRAME":"TEME","TIME_SYSTEM":"UTC"},{"ELEMENT_SET_NO":"999","COUNTRY_CODE":"US","MEAN_MOTION_DDOT":"0.0000000000000","TLE_LINE1":"1 53974U 22125L   22335.91667824 -.00734571  00000-0 -85702-2 0  9991","RCS_SIZE":"LARGE","MEAN_ELEMENT_THEORY":"SGP4","SEMIMAJOR_AXIS":"6756.155","LAUNCH_DATE":"2022-10-05","RA_OF_ASC_NODE":"169.6254","APOAPSIS":"378.838","CENTER_NAME":"EARTH","ECCENTRICITY":"0.00012100","GP_ID":"219308490","MEAN_ANOMALY":"256.0224","MEAN_MOTION":"15.63339576","OBJECT_ID":"2022-125L","OBJECT_TYPE":"PAYLOAD","REF_FRAME":"TEME","TIME_SYSTEM":"UTC","DECAY_DATE":null,"EPHEMERIS_TYPE":"0","MEAN_MOTION_DOT":"-0.00734571","BSTAR":"-0.00857020000000","CLASSIFICATION_TYPE":"U","OBJECT_NAME":"STARLINK-5159","FILE":"3678231","PERIOD":"92.111","REV_AT_EPOCH":"130","INCLINATION":"53.2171","EPOCH":"2022-12-01T22:00:00.999936","NORAD_CAT_ID":"53974","TLE_LINE2":"2 53974  53.2171 169.6254 0001210  51.5279 256.0224 15.63339576  1308","PERIAPSIS":"377.203","ARG_OF_PERICENTER":"51.5279","SITE":"AFWTR"}];
